#dP2021  8 21  0  0  0.00000000      97 __u+U IGS14 FIT  IAC
## 2171 518400.00000000   900.00000000 59447 0.0000000000000
+  121   C01C02C03C04C05C06C08C09C10C11C12C13C14C16C19C20C21
+        C22C23C24C25C26C27C28C29C30C32C33C34C35C36C37C38C39
+        C41C42C43C44C45C46C59C60E01E02E03E04E05E07E08E09E11
+        E12E13E14E15E18E19E21E24E25E26E27E30E31E33E36G01G02
+        G03G04G05G06G07G08G09G10G12G13G14G15G16G17G18G19G20
+        G21G22G23G24G25G26G27G28G29G30G31G32J02J03J07R01R02
+        R03R04R05R07R08R09R11R12R13R14R15R16R17R18R19R20R21
+        R22R24  0  0  0  0  0  0  0  0  0  0  0  0  0  0  0
++         0  0  0  0  0  0  0  0  0  0  0  0  0  0  0  0  0
++         0  0  0  0  0  0  0  0  0  0  0  0  0  0  0  0  0
++         0  0  0  0  0  0  0  0  0  0  0  0  0  0  0  0  0
++         0  0  0  0  0  0  0  0  0  0  0  0  0  0  0  0  0
++         0  0  0  0  0  0  0  0  0  0  0  0  0  0  0  0  0
++         0  0  0  0  0  0  0  0  0  0  0  0  0  0  0  0  0
++         0  0  0  0  0  0  0  0  0  0  0  0  0  0  0  0  0
++         0  0  0  0  0  0  0  0  0  0  0  0  0  0  0  0  0
%c M  cc GPS ccc cccc cccc cccc cccc ccccc ccccc ccccc ccccc
%c cc cc ccc ccc cccc cccc cccc cccc ccccc ccccc ccccc ccccc
%f  1.2500000  1.025000000  0.00000000000  0.000000000000000
%f  0.0000000  0.000000000  0.00000000000  0.000000000000000
%i    0    0    0    0      0      0      0      0         0
%i    0    0    0    0      0      0      0      0         0
/* INFORMATION & ANALYSIS CENTER (IAC)            FINAL DATA
/* S/V CLOCKS ARE ALIGNED TO GNSS TIME                      
/* G:C1WC2W R:C1PC2P E:C1XC5X C:C2IC6I J:C1CC2S             
/* PCV:IGS14_2163 OL/AL:FES2004  NONE     YN ORB:CoN CLK:CoN
*  2021 08 21  2  0  0.00000000
PC01 -34314.013338  24469.084529    180.946829   -153.612885
PC02   4248.351049  41929.281639    -13.274362    404.840201
PC03 -14785.320365  39439.877202    895.363143   -307.803295
PC04 -39598.328623  14393.726859    686.762132   -204.096179
PC05  21903.449589  36002.159059   -259.659821      5.242074
PC06 -12418.671355  23665.586762 -32647.193219    785.635344
PC08  -4522.928769  27522.448541  31862.817121   -925.460008
PC09  -1241.509667  24323.596336 -34120.662268    -42.947382
PC10  -8363.300105  39892.139349   9995.076288     -6.822158
PC11  10628.263585  14705.706604  21274.111632    528.628187
PC12 -10245.781014  13877.127750  21958.665448    777.111604
PC13   7363.977952  35723.371944  21481.267388    380.794049
PC14   1730.424507  20982.457605 -18269.220038    704.840588
PC16 -15171.266593  22702.835788 -32069.078233   -850.118179
PC19  -9663.143467 -13611.502686  22386.246471    954.575643
PC20   5045.153744 -24362.589145  12681.270789   -815.798456
PC21 -17571.832663  21036.789635   5183.887788   -938.128063
PC22 -19283.483053   5364.931204  19429.860481   -950.402444
PC23  18849.295965   5608.759294  19812.550699   -961.254146
PC24   3623.780808  25167.101583 -11522.035117   -964.174689
PC25  16929.103978  21197.570915   6587.180724   -867.232313
PC26  -9617.686774  14741.602060 -21665.021841    861.504761
PC27  19484.589384 -10584.270274 -16958.679574    584.203011
PC28  27879.720136    983.660063   -936.215285    -36.120256
PC29 -20274.443980 -11191.215773 -15578.291881    436.102822
PC30   -194.315460 -15891.876747 -22946.017615    478.076803
PC32  17425.829392 -21174.375008  -5193.738206   -933.680274
PC33   9710.670475  13616.808245 -22335.420853   -961.144326
PC34   1078.887090  15928.377234  22875.214761   -600.438920
PC35 -27914.687831   -279.072622    532.235019   -130.125592
PC36 -16238.005916 -21827.399831  -6184.190044   -746.375630
PC37  10642.723714 -13597.875955  21943.658067   -861.789178
PC38  -3970.470374  29995.298181  29435.291568    169.973568
PC39 -21045.068536  22226.442360 -29058.374251     32.831794
PC41  19207.769752  -5101.221683 -19545.000650   -955.019187
PC42  -5683.528792  24551.134195 -11930.139872   -936.724410
PC43  19756.987771  11608.232910  15905.876065   -877.261219
PC44 -19332.974370  11215.047286  16714.368896    351.349770
PC45 -18717.671231  -5444.818299 -19949.032935    526.039573
PC46  -4560.871040 -25379.309864  10640.799024    122.672360
PC59 -32289.942073  27105.500867   -688.652311     -0.927872
PC60   7297.707260  41482.795384   1691.900271     -1.056330
PE01 -12213.938208 -19699.810629 -18399.682102  -1176.012329
PE02  12286.883055  19576.886539  18505.157865    241.303152
PE03  16709.056199   8969.912994 -22732.783727   -465.919153
PE04 -26845.663989   6737.237772  10493.989123   -839.382362
PE05  -3434.436571  19690.422690 -21829.739559   -255.670203
PE07  21331.882133 -18813.271805   8226.465407   -576.234684
PE08  26840.132028  -7208.182155 -10210.474301   5950.813040
PE09 -21133.361135  18920.212048  -8428.013763   5559.198727
PE11 -12686.672379  11038.577280  24344.837517   5548.176096
PE12 -25913.569775  -4765.596872  13490.401746   5050.161174
PE13  13057.153048 -10700.054737 -24317.147693    420.516013
PE14  -3120.385713 -20354.940086 -24757.847819  -1542.632558
PE15  25902.637198   4699.372434 -13537.986744    796.821469
PE18  11442.552156  12029.556590  17715.811537  -1692.103965
PE19 -14563.299632 -10588.575326  23498.933974    357.328515
PE21  -1381.547113 -29470.706807  -2402.168231   -683.205990
PE24 -11398.410715  21886.836803 -16362.745122  -1073.897986
PE25   1257.764118  29491.112626   2219.205693   -543.930422
PE26  -8225.867895 -20067.887246 -20142.527526   1437.838218
PE27  10799.742356 -22662.362022  15691.052838   -102.441599
PE30  16630.932056  -1208.824656  24456.247239   2685.369155
PE31 -16526.787834   2596.163100 -24403.462378   -484.658146
PE33 -23457.431814 -17292.243905  -5187.185064   -466.020628
PE36   7435.037946  19755.029325  20748.409978   -251.228283
PG01 -22049.295349 -13706.332225   6120.069995    591.529265
PG02   9361.009498  19989.490804  15374.851845   -627.580815
PG03 -12941.992463  -9500.322750  21078.946050   -261.341412
PG04 -22718.668723  -2655.654547  13561.600405   -204.055501
PG05   7689.336507  20597.197630 -14945.361120    -51.782265
PG06  -2824.167815  15977.671961  21070.965774     59.586570
PG07 -20073.951687  -1037.260640 -17237.322096    229.230702
PG08 -14485.530912  -9445.768685 -20255.673626    -33.423405
PG09 -25384.586482   7090.451012   3331.367268   -359.318035
PG10  11632.876889 -20755.729636 -11388.661408   -186.664058
PG12  11987.709630  10689.460245  20929.944304    -85.822111
PG13   5989.293263  14079.854268 -21860.341647    174.170042
PG14 -12591.911886  20639.837997 -10939.624755     19.186107
PG15  16020.122137   8561.084217 -19860.923915   -126.919709
PG16  -1380.472221 -23877.266705 -11287.167859   -377.110516
PG17 -20637.414245  13338.606902  10517.493068    492.485139
PG18  18395.378268  -1315.665305 -19158.762996    330.831696
PG19 -13683.375109  14933.174104  16822.228333     42.313642
PG20   1865.234312  26388.282740  -3667.488304    519.545368
PG21 -21263.918077 -16300.823270  -1023.729917    138.360541
PG22 -11529.820871 -16751.494021  17365.628987   -533.199463
PG23  15067.572564 -10454.097624 -19211.816143     68.096489
PG24  22013.182666  15207.045134    934.585519    214.138446
PG25  15415.248569  -1538.960342  21281.001367    194.648108
PG26   4316.746959 -26024.263427   1140.675436    125.007504
PG27  -3621.814498 -14579.015976 -22068.291129   -181.307286
PG28  -9863.322785  24290.222580  -4308.010150    516.126258
PG29  25800.183318  -3438.446195   5407.043255   -399.379427
PG30 -11786.003978  10503.559426 -21299.038694   -464.412842
PG31   1732.589865 -17274.524447  19873.845501   -135.390588
PG32  17488.934263 -15671.568585  12353.931260      6.183708
PJ02 -20727.018283  27891.818689 -19297.956202     -1.726626
PJ03 -29497.664046  23882.768595  23348.262102     -1.021692
PJ07 -25388.701597  33655.439743    -19.495293      0.018841
PR01   3636.442217  11969.411249 -22229.568312     84.156546
PR02  16960.395534  -5448.030627 -18190.379040    490.418334
PR03  18292.908166 -17471.616325  -3016.151783     41.563904
PR04   9449.612351 -19379.143465  13650.027069    101.005731
PR05  -4652.245105 -10568.832069  22750.369411     77.504113
PR07 -18208.472511  17735.115120   2450.847373    -41.593941
PR08  -9395.707223  19433.457360 -13557.811871    -60.504788
PR09 -12953.134277  -6383.538660 -21023.626847      9.107546
PR11   2688.034332  23384.803568  -9793.673476     46.845076
PR12  10909.494674  21453.405764   8506.676283    255.338096
PR13  12803.767715   7234.285764  20832.780547    -59.452699
PR14   6999.762015 -12177.942206  21315.811620     67.876144
PR15  -2625.448162 -23634.505357   9263.863832    101.955545
PR16 -11792.161811 -20434.339758  -9549.813649    -19.967981
PR17  17752.352493  -4143.674758 -17862.304472    451.562935
PR18   1087.614928 -10462.816441 -23230.173501     87.666330
PR19 -14971.038599 -11818.281322 -16935.685792   -156.202972
PR20 -24770.338589  -5908.666063   1759.652574    -54.497884
PR21 -16665.530049   4657.052540  18720.362042   -233.071899
PR22   -165.435268  10610.670900  23171.340354   -128.942321
PR24  24886.938887   5089.196654  -2444.994956     55.322723
EOF
